STARLINK-2323_new
1 17868C 21021J   21326.17587365  .00000834  00000-0  55883-4 0  3267
2 17868  53.0541  52.9399 0001864  47.3359 196.8049 15.06401469    14
STARLINK-2323_old
1 27868C 21021J   21325.14531186 -.00014813  00000-0 -99251-3 0  3252
2 27868  53.0539  57.5662 0001836  46.7460   5.5288 15.06412004    18
